[
    {
        "Altitude(m)": 717878.1480290402,
        "Argument of Periapsis(deg)": 0.009112096949301655,
        "Eccentricity": 0.0,
        "Inclination(deg)": 45.0,
        "Latitude(deg)": -45.14431804293005,
        "Longitude(deg)": 70.87431293277794,
        "Mean Anomaly(deg)": -88.95522668201527,
        "RAAN(deg)": 259.99139844683344,
        "Satellite Name": "Constellation 1 1160",
        "Satellite Number": 1160,
        "Semi-Major Axis(m)": 7083131.272910544,
        "Time(s)": 152
    },
    {
        "Altitude(m)": 717877.6694219316,
        "Argument of Periapsis(deg)": 0.009172044955547059,
        "Eccentricity": 0.0,
        "Inclination(deg)": 45.0,
        "Latitude(deg)": -45.14317298622464,
        "Longitude(deg)": 70.95581093239437,
        "Mean Anomaly(deg)": -88.8945255417654,
        "RAAN(deg)": 259.99134185766786,
        "Satellite Name": "Constellation 1 1160",
        "Satellite Number": 1160,
        "Semi-Major Axis(m)": 7083131.272910544,
        "Time(s)": 153
    },
    {
        "Altitude(m)": 717877.1644245452,
        "Argument of Periapsis(deg)": 0.009231992961792466,
        "Eccentricity": 0.0,
        "Inclination(deg)": 45.0,
        "Latitude(deg)": -45.1419637915645,
        "Longitude(deg)": 71.03730541655393,
        "Mean Anomaly(deg)": -88.83382440151556,
        "RAAN(deg)": 259.99128526850234,
        "Satellite Name": "Constellation 1 1160",
        "Satellite Number": 1160,
        "Semi-Major Axis(m)": 7083131.272910544,
        "Time(s)": 154
    },
    {
        "Altitude(m)": 717876.6330387142,
        "Argument of Periapsis(deg)": 0.009291940968037872,
        "Eccentricity": 0.0,
        "Inclination(deg)": 45.0,
        "Latitude(deg)": -45.14069046430107,
        "Longitude(deg)": 71.11879619402237,
        "Mean Anomaly(deg)": -88.7731232612656,
        "RAAN(deg)": 259.9912286793367,
        "Satellite Name": "Constellation 1 1160",
        "Satellite Number": 1160,
        "Semi-Major Axis(m)": 7083131.272910544,
        "Time(s)": 155
    },
    {
        "Altitude(m)": 717876.0752663931,
        "Argument of Periapsis(deg)": 0.009351888974283276,
        "Eccentricity": 0.0,
        "Inclination(deg)": 45.0,
        "Latitude(deg)": -45.13935301006915,
        "Longitude(deg)": 71.20028290553451,
        "Mean Anomaly(deg)": -88.71242212101563,
        "RAAN(deg)": 259.9911720901712,
        "Satellite Name": "Constellation 1 1160",
        "Satellite Number": 1160,
        "Semi-Major Axis(m)": 7083131.272910544,
        "Time(s)": 156
    },
    {
        "Altitude(m)": 717875.491109617,
        "Argument of Periapsis(deg)": 0.00941183698052868,
        "Eccentricity": 0.0,
        "Inclination(deg)": 45.0,
        "Latitude(deg)": -45.13795143478632,
        "Longitude(deg)": 71.28176569618506,
        "Mean Anomaly(deg)": -88.6517209807659,
        "RAAN(deg)": 259.9911155010056,
        "Satellite Name": "Constellation 1 1160",
        "Satellite Number": 1160,
        "Semi-Major Axis(m)": 7083131.272910544,
        "Time(s)": 157
    },
    {
        "Altitude(m)": 717874.8805705283,
        "Argument of Periapsis(deg)": 0.009471784986774088,
        "Eccentricity": 0.0,
        "Inclination(deg)": 45.0,
        "Latitude(deg)": -45.136485744653434,
        "Longitude(deg)": 71.36324420685257,
        "Mean Anomaly(deg)": -88.5910198405159,
        "RAAN(deg)": 259.99105891184,
        "Satellite Name": "Constellation 1 1160",
        "Satellite Number": 1160,
        "Semi-Major Axis(m)": 7083131.272910544,
        "Time(s)": 158
    },
    {
        "Altitude(m)": 717874.2436513609,
        "Argument of Periapsis(deg)": 0.009531732993019492,
        "Eccentricity": 0.0,
        "Inclination(deg)": 45.0,
        "Latitude(deg)": -45.134955946154186,
        "Longitude(deg)": 71.44471824658753,
        "Mean Anomaly(deg)": -88.53031870026606,
        "RAAN(deg)": 259.9910023226745,
        "Satellite Name": "Constellation 1 1160",
        "Satellite Number": 1160,
        "Semi-Major Axis(m)": 7083131.272910544,
        "Time(s)": 159
    },
    {
        "Altitude(m)": 717873.5803544441,
        "Argument of Periapsis(deg)": 0.009591680999264898,
        "Eccentricity": 0.0,
        "Inclination(deg)": 45.0,
        "Latitude(deg)": -45.13336204605492,
        "Longitude(deg)": 71.52618762452136,
        "Mean Anomaly(deg)": -88.4696175600161,
        "RAAN(deg)": 259.99094573350885,
        "Satellite Name": "Constellation 1 1160",
        "Satellite Number": 1160,
        "Semi-Major Axis(m)": 7083131.272910544,
        "Time(s)": 160
    },
    {
        "Altitude(m)": 717872.8906822148,
        "Argument of Periapsis(deg)": 0.009651629005510304,
        "Eccentricity": 0.0,
        "Inclination(deg)": 45.0,
        "Latitude(deg)": -45.1317040514046,
        "Longitude(deg)": 71.60765214986804,
        "Mean Anomaly(deg)": -88.40891641976626,
        "RAAN(deg)": 259.9908891443433,
        "Satellite Name": "Constellation 1 1160",
        "Satellite Number": 1160,
        "Semi-Major Axis(m)": 7083131.272910544,
        "Time(s)": 161
    },
    {
        "Altitude(m)": 717872.1746371998,
        "Argument of Periapsis(deg)": 0.00971157701175571,
        "Eccentricity": 0.0,
        "Inclination(deg)": 45.0,
        "Latitude(deg)": -45.129981969534576,
        "Longitude(deg)": 71.6891116319289,
        "Mean Anomaly(deg)": -88.3482152795163,
        "RAAN(deg)": 259.99083255517775,
        "Satellite Name": "Constellation 1 1160",
        "Satellite Number": 1160,
        "Semi-Major Axis(m)": 7083131.272910544,
        "Time(s)": 162
    },
    {
        "Altitude(m)": 717871.432222022,
        "Argument of Periapsis(deg)": 0.009771525018001118,
        "Eccentricity": 0.0,
        "Inclination(deg)": 45.0,
        "Latitude(deg)": -45.128195808058656,
        "Longitude(deg)": 71.7705657119978,
        "Mean Anomaly(deg)": -88.2875141392665,
        "RAAN(deg)": 259.99077596601217,
        "Satellite Name": "Constellation 1 1160",
        "Satellite Number": 1160,
        "Semi-Major Axis(m)": 7083131.272910544,
        "Time(s)": 163
    },
    {
        "Altitude(m)": 717870.663439405,
        "Argument of Periapsis(deg)": 0.00983147302424652,
        "Eccentricity": 0.0,
        "Inclination(deg)": 45.0,
        "Latitude(deg)": -45.12634557487235,
        "Longitude(deg)": 71.85201453575326,
        "Mean Anomaly(deg)": -88.22681299901654,
        "RAAN(deg)": 259.9907193768466,
        "Satellite Name": "Constellation 1 1160",
        "Satellite Number": 1160,
        "Semi-Major Axis(m)": 7083131.272910544,
        "Time(s)": 164
    },
    {
        "Altitude(m)": 717869.8682921733,
        "Argument of Periapsis(deg)": 0.009891421030491928,
        "Eccentricity": 0.0,
        "Inclination(deg)": 45.0,
        "Latitude(deg)": -45.124431278153516,
        "Longitude(deg)": 71.93345774467974,
        "Mean Anomaly(deg)": -88.16611185876658,
        "RAAN(deg)": 259.990662787681,
        "Satellite Name": "Constellation 1 1160",
        "Satellite Number": 1160,
        "Semi-Major Axis(m)": 7083131.272910544,
        "Time(s)": 165
    },
    {
        "Altitude(m)": 717869.0467832371,
        "Argument of Periapsis(deg)": 0.009951369036737332,
        "Eccentricity": 0.0,
        "Inclination(deg)": 45.0,
        "Latitude(deg)": -45.12245292636163,
        "Longitude(deg)": 72.01489514845854,
        "Mean Anomaly(deg)": -88.10541071851675,
        "RAAN(deg)": 259.9906061985155,
        "Satellite Name": "Constellation 1 1160",
        "Satellite Number": 1160,
        "Semi-Major Axis(m)": 7083131.272910544,
        "Time(s)": 166
    },
    {
        "Altitude(m)": 717868.1989156172,
        "Argument of Periapsis(deg)": 0.010011317042982738,
        "Eccentricity": 0.0,
        "Inclination(deg)": 45.0,
        "Latitude(deg)": -45.12041052823778,
        "Longitude(deg)": 72.09632655687506,
        "Mean Anomaly(deg)": -88.04470957826689,
        "RAAN(deg)": 259.9905496093499,
        "Satellite Name": "Constellation 1 1160",
        "Satellite Number": 1160,
        "Semi-Major Axis(m)": 7083131.272910544,
        "Time(s)": 167
    },
    {
        "Altitude(m)": 717867.3246924252,
        "Argument of Periapsis(deg)": 0.010071265049228144,
        "Eccentricity": 0.0,
        "Inclination(deg)": 45.0,
        "Latitude(deg)": -45.11830409280444,
        "Longitude(deg)": 72.17775177982155,
        "Mean Anomaly(deg)": -87.9840084380169,
        "RAAN(deg)": 259.9904930201843,
        "Satellite Name": "Constellation 1 1160",
        "Satellite Number": 1160,
        "Semi-Major Axis(m)": 7083131.272910544,
        "Time(s)": 168
    },
    {
        "Altitude(m)": 717866.4241168697,
        "Argument of Periapsis(deg)": 0.01013121305547355,
        "Eccentricity": 0.0,
        "Inclination(deg)": 45.0,
        "Latitude(deg)": -45.11613362936534,
        "Longitude(deg)": 72.25917062730007,
        "Mean Anomaly(deg)": -87.92330729776704,
        "RAAN(deg)": 259.99043643101874,
        "Satellite Name": "Constellation 1 1160",
        "Satellite Number": 1160,
        "Semi-Major Axis(m)": 7083131.272910544,
        "Time(s)": 169
    },
    {
        "Altitude(m)": 717865.4971922564,
        "Argument of Periapsis(deg)": 0.010191161061718957,
        "Eccentricity": 0.0,
        "Inclination(deg)": 45.0,
        "Latitude(deg)": -45.11389914750521,
        "Longitude(deg)": 72.34058290942689,
        "Mean Anomaly(deg)": -87.8626061575172,
        "RAAN(deg)": 259.99037984185316,
        "Satellite Name": "Constellation 1 1160",
        "Satellite Number": 1160,
        "Semi-Major Axis(m)": 7083131.272910544,
        "Time(s)": 170
    }
]